{
    "links": {
        "self": "http://www.neowsapp.com/rest/v1/neo/3392368?api_key=iIulBulltgU6a56xZRHN4H3l9WmuAYTsLGpBGhQ2"
    },
    "id": "3392368",
    "neo_reference_id": "3392368",
    "name": "(2007 VW6)",
    "designation": "2007 VW6",
    "nasa_jpl_url": "http://ssd.jpl.nasa.gov/sbdb.cgi?sstr=3392368",
    "absolute_magnitude_h": 21.2,
    "estimated_diameter": {
        "kilometers": {
            "estimated_diameter_min": 0.1529519353,
            "estimated_diameter_max": 0.3420109247
        },
        "meters": {
            "estimated_diameter_min": 152.9519353442,
            "estimated_diameter_max": 342.0109247198
        },
        "miles": {
            "estimated_diameter_min": 0.095039897,
            "estimated_diameter_max": 0.2125156703
        },
        "feet": {
            "estimated_diameter_min": 501.8108275547,
            "estimated_diameter_max": 1122.0831222578
        }
    },
    "is_potentially_hazardous_asteroid": false,
    "close_approach_data": [
        {
            "close_approach_date": "2007-10-31",
            "close_approach_date_full": "2007-Oct-31 16:19",
            "epoch_date_close_approach": 1193847540000,
            "relative_velocity": {
                "kilometers_per_second": "19.853941609",
                "kilometers_per_hour": "71474.1897923665",
                "miles_per_hour": "44411.2819851513"
            },
            "miss_distance": {
                "astronomical": "0.319974388",
                "lunar": "124.470036932",
                "kilometers": "47867486.89935356",
                "miles": "29743477.135896728"
            },
            "orbiting_body": "Earth"
        }
    ],
    "orbital_data": {
        "orbit_id": "7",
        "orbit_determination_date": "2017-04-06 09:05:23",
        "first_observation_date": "2007-11-03",
        "last_observation_date": "2007-11-18",
        "data_arc_in_days": 15,
        "observations_used": 22,
        "orbit_uncertainty": "8",
        "minimum_orbit_intersection": ".230442",
        "jupiter_tisserand_invariant": "3.951",
        "epoch_osculation": "2454409.5",
        "eccentricity": ".3374710377906178",
        "semi_major_axis": "1.665460781253358",
        "inclination": "39.07269837670025",
        "ascending_node_longitude": "225.3023030056994",
        "orbital_period": "785.0549246211567",
        "perihelion_distance": "1.103416003004214",
        "perihelion_argument": "124.3421919680016",
        "aphelion_distance": "2.227505559502502",
        "perihelion_time": "2454340.602964835495",
        "mean_anomaly": "31.59388200919946",
        "mean_motion": ".4585666412750992",
        "equinox": "J2000",
        "orbit_class": {
            "orbit_class_type": "AMO",
            "orbit_class_description": "Near-Earth asteroid orbits similar to that of 1221 Amor",
            "orbit_class_range": "1.017 AU < q (perihelion) < 1.3 AU"
        }
    },
    "is_sentry_object": false
}